STARLINK-3057           
1 49139U 21082K   26068.88039440  .00000116  00000+0  17535-4 0  9999
2 49139  69.9986 253.9616 0002672 269.0716  91.0136 14.98332376246991
SHIYAN-24C 03           
1 58652U 23206C   26068.89147317  .00001350  00000+0  11928-3 0  9993
2 58652  97.3969  41.7507 0002411  66.6237 293.5240 14.97896938120432
